IRIDIUM 57 [-]          
1 25273U 98019B   23305.51565721  .00000600  00000+0  20395-3 0  9998
2 25273  86.4008  33.8547 0002135  93.1896 266.9544 14.34963041339628
IRIDIUM 63 [-]          
1 25286U 98021B   23305.55313015  .00000559  00000+0  18784-3 0  9998
2 25286  86.3976 330.8040 0002308  87.8755 272.2706 14.35466895338657
IRIDIUM 69 [-]          
1 25319U 98026A   23305.59271441  .00000678  00000+0  21057-3 0  9999
2 25319  86.4003 345.8332 0003217 136.9992 223.1458 14.39642817337624
IRIDIUM 71 [-]          
1 25320U 98026B   23305.57445235  .00000551  00000+0  16882-3 0  9993
2 25320  86.3988 340.6667 0001051 163.9007 196.2225 14.39974336338135
IRIDIUM 73 [-]          
1 25344U 98032C   23305.51627104  .00000851  00000+0  21428-3 0  9992
2 25344  86.4368 298.4774 0002235 106.6193 253.5257 14.50098274344486
IRIDIUM 82 [-]          
1 25467U 98051A   23305.27971798  .00010889  00000+0  63511-3 0  9994
2 25467  86.3998  33.4616 0144045 337.8730  21.6324 15.03378441334027
IRIDIUM 2 [-]           
1 25527U 98066A   23305.44659730  .00048436  00000+0  10720-2 0  9997
2 25527  85.5168  87.8261 0005117 121.4798 238.6957 15.43592773372271
